AKEBONO (EXOS-D)        
1 19822U 89016A   17357.31388944  .00022928  92855-6  43446-3 0  9991
2 19822  75.0401  72.3331 1873535 261.5464  77.0049 11.77100760931426
HST                     
1 20580U 90037B   17356.93412855  .00000444  00000-0  16247-4 0  9999
2 20580  28.4682 200.1600 0002810  45.9644  90.1244 15.08949163318737
POLAR                   
1 23802U 96013A   17355.90139400 -.00000102  00000-0  00000-0 0  9995
2 23802  78.5297 265.6423 7236089 315.2108   5.5907  1.29843144104612
SWAS                    
1 25560U 98071A   17356.86034150  .00000134  00000-0  21351-4 0  9996
2 25560  69.8979 146.5626 0011328 266.4530  93.5331 14.93512396 33710
ORSTED                  
1 25635U 99008B   17357.53570433  .00000071  00000-0  24706-4 0  9991
2 25635  96.4565 218.9697 0139083   4.4975 355.7437 14.48042299993630
CXO                     
1 25867U 99040B   17359.75726657  .00000726  00000-0  00000+0 0  9994
2 25867  72.7479 286.3097 6804312 246.8176   0.4441  0.37806366 16772
XMM-NEWTON              
1 25989U 99066A   17359.12442939 -.00000508  00000-0  00000+0 0  9995
2 25989  69.7272 354.5671 8110696  96.0040   0.1157  0.50140650 21849
TERRA                   
1 25994U 99068A   17357.52676285  .00000210  00000-0  56639-4 0  9991
2 25994  98.2140  69.8682 0000928 100.2037 259.9291 14.57108591958242
CLUSTER II-FM6 (SALSA)  
1 26410U 00041A   17339.35447694  .00000470  00000-0  00000+0 0  9993
2 26410 130.9005 334.4777 4281917 156.2878   0.2010  0.44190440 18252
CLUSTER II-FM7 (SAMBA)  
1 26411U 00041B   17359.64706623  .00000409  00000-0  00000+0 0  9990
2 26411 130.0107 335.9202 4994135 164.8631 359.2477  0.44234777 18426
CLUSTER II-FM5 (RUMBA)  
1 26463U 00045A   17359.64343354  .00000446  00000-0  00000+0 0  9990
2 26463 133.5600 334.4934 4695853 163.1708 359.2764  0.44231556 18923
CLUSTER II-FM8 (TANGO)  
1 26464U 00045B   17356.54205244  .00000380  00000-0  00000+0 0  9999
2 26464 130.9063 334.6087 4268679 156.7494 230.3950  0.44218552 54243
ODIN                    
1 26702U 01007A   17356.70447192  .00000366  00000-0  28333-4 0  9999
2 26702  97.6016  11.6224 0012134 125.5892 234.6468 15.07382020920043
TIMED                   
1 26998U 01055B   17356.94552547  .00000114  00000-0  16530-4 0  9993
2 26998  74.0727 299.5056 0002636 267.4856  92.6022 14.87975763869500
RHESSI                  
1 27370U 02004A   17357.18887016  .00002165  00000-0  78536-4 0  9994
2 27370  38.0344 335.8457 0011319 146.8658 213.2823 15.29558644875214
INTEGRAL                
1 27540U 02048A   17360.35556487  .00000933  00000-0  00000+0 0  9996
2 27540  49.1501 178.6933 8392163 264.7211   0.3781  0.37574727 15021
CORIOLIS                
1 27640U 03001A   17357.06870583 -.00000001  00000-0  20266-4 0  9995
2 27640  98.7408   4.7082 0014967 122.7662 287.8410 14.18964668774732
SORCE                   
1 27651U 03004A   17356.47739793  .00000118  00000-0  26596-4 0  9991
2 27651  39.9969 352.3146 0022627 119.7422 240.5621 14.88790829808863
MOST                    
1 27843U 03031D   17357.51464420 -.00000022  00000-0  10077-4 0  9994
2 27843  98.7133   2.9409 0009869 182.2479 177.8655 14.20559910750834
SCISAT 1                
1 27858U 03036A   17356.92300809  .00000078  00000-0  16048-4 0  9993
2 27858  73.9315 175.8558 0009024 238.2987 121.7308 14.77176252773644
SWIFT                   
1 28485U 04047A   17357.04467598  .00000931  00000-0  33959-4 0  9994
2 28485  20.5566 254.2246 0011479 104.6693 255.5014 15.03979935716679
FORMOSAT-3 FM6          
1 29047U 06011A   17356.89671985  .00000049  00000-0  35536-4 0  9994
2 29047  71.9776 162.1250 0050716 188.9311 171.0929 14.28615522611708
FORMOSAT-3 FM1          
1 29048U 06011B   17356.74394433  .00000084  00000-0  49597-4 0  9990
2 29048  71.9681  74.3846 0042426 145.6633 214.7259 14.28554723614175
FORMOSAT-3 FM5          
1 29049U 06011C   17356.93383737  .00000144  00000-0  73248-4 0  9994
2 29049  72.0200 240.5162 0035268 181.2237 178.8820 14.28612785609985
FORMOSAT-3 FM3          
1 29050U 06011D   17356.83065597  .00000235  00000-0  60122-4 0  9994
2 29050  72.0160 119.3402 0049886 176.4711 183.6804 14.58606292623976
FORMOSAT-3 FM4          
1 29051U 06011E   17356.88196979  .00000070  00000-0  42925-4 0  9997
2 29051  72.0047 144.3623 0066935  53.2132 307.5122 14.28639887612563
FORMOSAT-3 FM2          
1 29052U 06011F   17356.94354182  .00000086  00000-0  49854-4 0  9992
2 29052  72.0331 215.7445 0039209 142.0038 218.3877 14.28733885610074
CLOUDSAT                
1 29107U 06016A   17356.93073220  .00000082  00000-0  28387-4 0  9992
2 29107  98.2237 298.2155 0001353 127.0068 233.1254 14.57055817619751
CALIPSO                 
1 29108U 06016B   17356.86059216  .00000125  00000-0  37906-4 0  9999
2 29108  98.2256 297.7327 0001212  81.7188 278.4147 14.57113557619817
HINODE (SOLAR-B)        
1 29479U 06041A   17356.90617695  .00000072  00000-0  22635-4 0  9998
2 29479  98.1684   0.0266 0016835 348.6266  11.4554 14.64882309601014
SJ-6C                   
1 29505U 06046A   17357.50840589  .00000604  00000-0  61496-4 0  9999
2 29505  97.8244 358.8163 0003108 150.6180 209.5223 14.94404098608149
SJ-6D                   
1 29506U 06046B   17357.47508610 -.00000188  00000-0 -12537-4 0  9993
2 29506  97.8435 358.2517 0000687 225.0497 135.0673 14.93334120607807
AGILE                   
1 31135U 07013A   17357.32002061  .00002362  00000-0  40758-4 0  9992
2 31135   2.4681  75.6293 0012321  63.3836 296.7480 15.30382169592736
AIM                     
1 31304U 07015A   17356.93466698  .00000986  00000-0  60785-4 0  9990
2 31304  97.9995 184.9153 0004519 199.6385 160.4670 15.12473542583466
FGRST (GLAST)           
1 33053U 08029A   17356.82572005  .00000448  00000-0  89372-5 0  9994
2 33053  25.5813 159.8635 0012196 305.3965  54.5430 15.11022788525881
WISE                    
1 36119U 09071A   17356.70781043  .00000869  00000-0  33748-4 0  9991
2 36119  97.4332  24.4163 0003312  37.5740 322.5731 15.28765964445059
SDO                     
1 36395U 10005A   17356.41365453 -.00000043  00000-0  00000-0 0  9993
2 36395  28.9840 137.0659 0001531 120.9794 240.2738  1.00270878 28999
CRYOSAT 2               
1 36508U 10013A   17356.89296776  .00000105  00000-0  25133-4 0  9997
2 36508  92.0289 247.8997 0009755  66.5648 293.6584 14.52172076408566
GCOM-W1 (SHIZUKU)       
1 38337U 12025A   17356.86914260  .00000075  00000-0  26763-4 0  9992
2 38337  98.2249 294.4305 0001050 111.4061 315.3825 14.57101316297843
NUSTAR                  
1 38358U 12031A   17357.41860932  .00000954  00000-0  26493-4 0  9996
2 38358   6.0281  15.7596 0011524 141.8869 218.2075 14.87900268300675
RBSP A                  
1 38752U 12046A   17356.60088022 -.00000085  00000-0 -17370-3 0  9992
2 38752   9.9148 103.2963 6819111 307.4812   8.2841  2.68113940 51940
RBSP B                  
1 38753U 12046B   17356.53220331 -.00000060  00000-0 -15360-3 0  9996
2 38753   9.8562 114.8381 6831722 285.3170  13.3485  2.65138127 51532
NEOSSAT                 
1 39089U 13009D   17356.65022528  .00000011  00000-0  19374-4 0  9994
2 39089  98.5367 198.0200 0012226  99.4800 260.7768 14.34410224252417
BRITE-AUSTRIA           
1 39091U 13009F   17357.12902206 -.00000001  00000-0  14852-4 0  9996
2 39091  98.5313 199.9576 0011563 105.9228 254.3232 14.35054418252591
UNIBRITE                
1 39092U 13009G   17357.14490456 -.00000002  00000-0  14505-4 0  9994
2 39092  98.5323 199.6474 0010498  99.8225 260.4146 14.34928461252578
IRIS                    
1 39197U 13033A   17357.53025779  .00000140  00000-0  26333-4 0  9996
2 39197  97.9294 176.1925 0026476 283.6350  76.1913 14.78480158242083
HISAKI (SPRINT-A)       
1 39253U 13049A   17356.85452369  .00000115  00000-0  70351-4 0  9990
2 39253  29.7185 125.8928 0136700 107.7191 253.8353 13.55182834210804
CASSIOPE                
1 39265U 13055A   17356.95565175  .00002384  00000-0  67427-4 0  9991
2 39265  80.9676 179.5241 0682041  66.0428 301.0624 14.24471540218378
DANDE                   
1 39267U 13055C   17356.85011808  .00001945  00000-0  55739-4 0  9996
2 39267  81.0100 193.4453 0708861  88.6872 279.5344 14.18366868217765
STSAT-3                 
1 39422U 13066G   17357.45800206  .00000142  00000-0  20485-4 0  9994
2 39422  97.6349  53.6853 0022481 330.7124  29.2845 14.89549253222104
BRITE-PL                
1 39431U 13066R   17356.91334853  .00000057  00000-0  23003-4 0  9998
2 39431  97.7334 318.1837 0201211 251.5700 106.3527 14.46898650215736
SWARM B                 
1 39451U 13067A   17357.55809867  .00000350  00000-0  14089-4 0  9994
2 39451  87.7547 191.2905 0003857  78.9351 281.2327 15.21208312226634
SWARM A                 
1 39452U 13067B   17357.54757610  .00001341  00000-0  29655-4 0  9998
2 39452  87.3486 101.5160 0002394  79.9930 280.1596 15.42773126229327
SWARM C                 
1 39453U 13067C   17357.54750721  .00001363  00000-0  30148-4 0  9998
2 39453  87.3488 102.9396 0002347  80.5906 279.5616 15.42773407229287
BRITE-TORONTO           
1 40020U 14033L   17357.52314437  .00000110  00000-0  27056-4 0  9995
2 40020  97.8073 219.5037 0088976  84.5180 276.6166 14.66453839187844
OCO 2                   
1 40059U 14035A   17356.92328059  .00000038  00000-0  18438-4 0  9990
2 40059  98.2253 295.6659 0001546  95.9100 264.2275 14.57110803184866
BRITE-PL 2              
1 40119U 14049B   17356.78391581  .00000141  00000-0  23278-4 0  9999
2 40119  97.9282  81.6174 0017326 189.4729 170.6161 14.84231737181046
RESURS P2               
1 40360U 14087A   17357.46008124  .00001015  00000-0  34893-4 0  9999
2 40360  97.2746  87.8384 0009230 180.3938 308.4603 15.32342637167367
MMS 1                   
1 40482U 15011A   17352.91666667 -.00001510  00000-0  00000-0 0  9999
2 40482  19.4088 309.2989 9049807 161.4359  93.1998  0.35488708  8310
MMS 2                   
1 40483U 15011B   17352.95833333 -.00001506  00000-0  00000-0 0  9995
2 40483  19.3959 309.2760 9050608 161.4685  98.5329  0.35488508  8301
MMS 3                   
1 40484U 15011C   17352.11599328 -.00001576  00000-0  00000+0 0  9993
2 40484  19.4779 309.3032 9047370 161.3821 350.9355  0.35508472  8306
MMS 4                   
1 40485U 15011D   17352.11550622 -.00001576  00000-0  00000-0 0  9999
2 40485  19.4835 309.2922 9046689 161.3715 350.8752  0.35508210  8299
ASTROSAT                
1 40930U 15052A   17357.30999411  .00000792  00000-0  22285-4 0  9999
2 40930   5.9995 327.6276 0009051  36.9959 323.0879 14.76183175120945
DAMPE                   
1 41173U 15078A   17357.41778049  .00000116  00000-0  77060-5 0  9993
2 41173  97.2893   0.1163 0012715 202.7518 263.4492 15.23648192112272
PISAT                   
1 41784U 16059B   17357.16928260  .00000104  00000-0  29554-4 0  9996
2 41784  98.1441  56.6254 0030767 287.8152  71.9694 14.63290041 66218
HXMT                    
1 42758U 17034A   17357.41449461  .00000374  00000-0  37543-4 0  9997
2 42758  43.0188 329.6004 0006742  94.4642  40.9542 15.08193919 28880
FLYING LAPTOP           
1 42831U 17042G   17356.83441175  .00000249  00000-0  30759-4 0  9990
2 42831  97.6083 260.6993 0015592  68.3511 291.9367 14.90770283 24053
